CCSDS_OMM_VERS = 2.0
CREATION_DATE  = 
ORIGINATOR     = 

OBJECT_NAME    = STARLINK-36599
OBJECT_ID      = 2026-020X
CENTER_NAME    = EARTH
REF_FRAME      = TEME
TIME_SYSTEM    = UTC
MEAN_ELEMENT_THEORY = SGP/SGP4

EPOCH          = 2026-02-28T10:26:54.271104
MEAN_MOTION    = 15.76680362
ECCENTRICITY   = .0002829
INCLINATION    = 42.9990
RA_OF_ASC_NODE = 197.6876
ARG_OF_PERICENTER = 236.7233
MEAN_ANOMALY   = 123.3366

EPHEMERIS_TYPE = 0
CLASSIFICATION_TYPE = U
NORAD_CAT_ID   = 67638
ELEMENT_SET_NO = 999
REV_AT_EPOCH   = 463
BSTAR          = .27424E-2
MEAN_MOTION_DOT = .478843E-2
MEAN_MOTION_DDOT = 0

CCSDS_OMM_VERS = 2.0
CREATION_DATE  = 
ORIGINATOR     = 

OBJECT_NAME    = STARLINK-36595
OBJECT_ID      = 2026-020Y
CENTER_NAME    = EARTH
REF_FRAME      = TEME
TIME_SYSTEM    = UTC
MEAN_ELEMENT_THEORY = SGP/SGP4

EPOCH          = 2026-02-28T09:14:35.651040
MEAN_MOTION    = 15.76524977
ECCENTRICITY   = .0002012
INCLINATION    = 42.9980
RA_OF_ASC_NODE = 198.1790
ARG_OF_PERICENTER = 258.9316
MEAN_ANOMALY   = 101.1327

EPHEMERIS_TYPE = 0
CLASSIFICATION_TYPE = U
NORAD_CAT_ID   = 67639
ELEMENT_SET_NO = 999
REV_AT_EPOCH   = 462
BSTAR          = .1653E-2
MEAN_MOTION_DOT = .279718E-2
MEAN_MOTION_DDOT = 0

CCSDS_OMM_VERS = 2.0
CREATION_DATE  = 
ORIGINATOR     = 

OBJECT_NAME    = STARLINK-36570
OBJECT_ID      = 2026-020Z
CENTER_NAME    = EARTH
REF_FRAME      = TEME
TIME_SYSTEM    = UTC
MEAN_ELEMENT_THEORY = SGP/SGP4

EPOCH          = 2026-02-28T09:46:07.360032
MEAN_MOTION    = 15.76463298
ECCENTRICITY   = .0001583
INCLINATION    = 42.9981
RA_OF_ASC_NODE = 198.3564
ARG_OF_PERICENTER = 247.3144
MEAN_ANOMALY   = 112.7559

EPHEMERIS_TYPE = 0
CLASSIFICATION_TYPE = U
NORAD_CAT_ID   = 67640
ELEMENT_SET_NO = 999
REV_AT_EPOCH   = 462
BSTAR          = .17894E-2
MEAN_MOTION_DOT = .302844E-2
MEAN_MOTION_DDOT = 0

CCSDS_OMM_VERS = 2.0
CREATION_DATE  = 
ORIGINATOR     = 

OBJECT_NAME    = STARLINK-36514
OBJECT_ID      = 2026-020AA
CENTER_NAME    = EARTH
REF_FRAME      = TEME
TIME_SYSTEM    = UTC
MEAN_ELEMENT_THEORY = SGP/SGP4

EPOCH          = 2026-02-28T10:23:45.672864
MEAN_MOTION    = 15.76614859
ECCENTRICITY   = .0002611
INCLINATION    = 42.9985
RA_OF_ASC_NODE = 197.6697
ARG_OF_PERICENTER = 245.9996
MEAN_ANOMALY   = 114.0601

EPHEMERIS_TYPE = 0
CLASSIFICATION_TYPE = U
NORAD_CAT_ID   = 67641
ELEMENT_SET_NO = 999
REV_AT_EPOCH   = 463
BSTAR          = .2588E-2
MEAN_MOTION_DOT = .448946E-2
MEAN_MOTION_DDOT = 0

CCSDS_OMM_VERS = 2.0
CREATION_DATE  = 
ORIGINATOR     = 

OBJECT_NAME    = STARLINK-36556
OBJECT_ID      = 2026-020AB
CENTER_NAME    = EARTH
REF_FRAME      = TEME
TIME_SYSTEM    = UTC
MEAN_ELEMENT_THEORY = SGP/SGP4

EPOCH          = 2026-02-28T09:30:21.547872
MEAN_MOTION    = 15.76545452
ECCENTRICITY   = .0002221
INCLINATION    = 42.9989
RA_OF_ASC_NODE = 198.2672
ARG_OF_PERICENTER = 258.1596
MEAN_ANOMALY   = 101.9025

EPHEMERIS_TYPE = 0
CLASSIFICATION_TYPE = U
NORAD_CAT_ID   = 67642
ELEMENT_SET_NO = 999
REV_AT_EPOCH   = 462
BSTAR          = .21919E-2
MEAN_MOTION_DOT = .375695E-2
MEAN_MOTION_DDOT = 0

CCSDS_OMM_VERS = 2.0
CREATION_DATE  = 
ORIGINATOR     = 

OBJECT_NAME    = STARLINK-36533
OBJECT_ID      = 2026-020AC
CENTER_NAME    = EARTH
REF_FRAME      = TEME
TIME_SYSTEM    = UTC
MEAN_ELEMENT_THEORY = SGP/SGP4

EPOCH          = 2026-02-28T09:49:16.505184
MEAN_MOTION    = 15.76455707
ECCENTRICITY   = .0002199
INCLINATION    = 42.9988
RA_OF_ASC_NODE = 198.3742
ARG_OF_PERICENTER = 255.0227
MEAN_ANOMALY   = 105.0400

EPHEMERIS_TYPE = 0
CLASSIFICATION_TYPE = U
NORAD_CAT_ID   = 67643
ELEMENT_SET_NO = 999
REV_AT_EPOCH   = 462
BSTAR          = .20665E-2
MEAN_MOTION_DOT = .351755E-2
MEAN_MOTION_DDOT = 0

CCSDS_OMM_VERS = 2.0
CREATION_DATE  = 
ORIGINATOR     = 

OBJECT_NAME    = STARLINK-36623
OBJECT_ID      = 2026-020AD
CENTER_NAME    = EARTH
REF_FRAME      = TEME
TIME_SYSTEM    = UTC
MEAN_ELEMENT_THEORY = SGP/SGP4

EPOCH          = 2026-02-28T09:39:48.971232
MEAN_MOTION    = 15.76449753
ECCENTRICITY   = .0002206
INCLINATION    = 42.9979
RA_OF_ASC_NODE = 198.3187
ARG_OF_PERICENTER = 260.5565
MEAN_ANOMALY   = 99.5055

EPHEMERIS_TYPE = 0
CLASSIFICATION_TYPE = U
NORAD_CAT_ID   = 67644
ELEMENT_SET_NO = 999
REV_AT_EPOCH   = 462
BSTAR          = .19186E-2
MEAN_MOTION_DOT = .325429E-2
MEAN_MOTION_DDOT = 0

CCSDS_OMM_VERS = 2.0
CREATION_DATE  = 
ORIGINATOR     = 

OBJECT_NAME    = STARLINK-36619
OBJECT_ID      = 2026-020AE
CENTER_NAME    = EARTH
REF_FRAME      = TEME
TIME_SYSTEM    = UTC
MEAN_ELEMENT_THEORY = SGP/SGP4

EPOCH          = 2026-02-28T09:36:39.961728
MEAN_MOTION    = 15.76464565
ECCENTRICITY   = .000134
INCLINATION    = 42.9970
RA_OF_ASC_NODE = 198.3022
ARG_OF_PERICENTER = 260.2023
MEAN_ANOMALY   = 99.8695

EPHEMERIS_TYPE = 0
CLASSIFICATION_TYPE = U
NORAD_CAT_ID   = 67645
ELEMENT_SET_NO = 999
REV_AT_EPOCH   = 462
BSTAR          = .2217E-2
MEAN_MOTION_DOT = .378795E-2
MEAN_MOTION_DDOT = 0

CCSDS_OMM_VERS = 2.0
CREATION_DATE  = 
ORIGINATOR     = 

OBJECT_NAME    = ALSAT-3B
OBJECT_ID      = 2026-021A
CENTER_NAME    = EARTH
REF_FRAME      = TEME
TIME_SYSTEM    = UTC
MEAN_ELEMENT_THEORY = SGP/SGP4

EPOCH          = 2026-02-28T10:51:28.674144
MEAN_MOTION    = 15.23792327
ECCENTRICITY   = .0013198
INCLINATION    = 97.4691
RA_OF_ASC_NODE = 133.8305
ARG_OF_PERICENTER = 162.1431
MEAN_ANOMALY   = 198.0272

EPHEMERIS_TYPE = 0
CLASSIFICATION_TYPE = U
NORAD_CAT_ID   = 67646
ELEMENT_SET_NO = 999
REV_AT_EPOCH   = 431
BSTAR          = .28797E-3
MEAN_MOTION_DOT = .6877E-4
MEAN_MOTION_DDOT = 0

CCSDS_OMM_VERS = 2.0
CREATION_DATE  = 
ORIGINATOR     = 

OBJECT_NAME    = CZ-2C R/B
OBJECT_ID      = 2026-021B
CENTER_NAME    = EARTH
REF_FRAME      = TEME
TIME_SYSTEM    = UTC
MEAN_ELEMENT_THEORY = SGP/SGP4

EPOCH          = 2026-02-28T10:56:13.431264
MEAN_MOTION    = 15.23815453
ECCENTRICITY   = .0152158
INCLINATION    = 97.6531
RA_OF_ASC_NODE = 134.7431
ARG_OF_PERICENTER = 43.4477
MEAN_ANOMALY   = 317.8632

EPHEMERIS_TYPE = 0
CLASSIFICATION_TYPE = U
NORAD_CAT_ID   = 67647
ELEMENT_SET_NO = 999
REV_AT_EPOCH   = 429
BSTAR          = .36554E-3
MEAN_MOTION_DOT = .12156E-3
MEAN_MOTION_DDOT = 0

CCSDS_OMM_VERS = 2.0
CREATION_DATE  = 
ORIGINATOR     = 

OBJECT_NAME    = STARLINK-36719
OBJECT_ID      = 2026-022A
CENTER_NAME    = EARTH
REF_FRAME      = TEME
TIME_SYSTEM    = UTC
MEAN_ELEMENT_THEORY = SGP/SGP4

EPOCH          = 2026-02-28T06:15:15.575616
MEAN_MOTION    = 15.75241700
ECCENTRICITY   = .0001199
INCLINATION    = 97.2853
RA_OF_ASC_NODE = 92.7585
ARG_OF_PERICENTER = 78.1131
MEAN_ANOMALY   = 282.0269

EPHEMERIS_TYPE = 0
CLASSIFICATION_TYPE = U
NORAD_CAT_ID   = 67648
ELEMENT_SET_NO = 999
REV_AT_EPOCH   = 406
BSTAR          = .12025E-2
MEAN_MOTION_DOT = .183543E-2
MEAN_MOTION_DDOT = 0

CCSDS_OMM_VERS = 2.0
CREATION_DATE  = 
ORIGINATOR     = 

OBJECT_NAME    = STARLINK-36342
OBJECT_ID      = 2026-022B
CENTER_NAME    = EARTH
REF_FRAME      = TEME
TIME_SYSTEM    = UTC
MEAN_ELEMENT_THEORY = SGP/SGP4

EPOCH          = 2026-02-28T06:14:14.304192
MEAN_MOTION    = 15.75232604
ECCENTRICITY   = .0004565
INCLINATION    = 97.2863
RA_OF_ASC_NODE = 92.7582
ARG_OF_PERICENTER = 132.8403
MEAN_ANOMALY   = 227.3247

EPHEMERIS_TYPE = 0
CLASSIFICATION_TYPE = U
NORAD_CAT_ID   = 67649
ELEMENT_SET_NO = 999
REV_AT_EPOCH   = 406
BSTAR          = .12505E-2
MEAN_MOTION_DOT = .191049E-2
MEAN_MOTION_DDOT = 0

