STARLINK-36599          
1 67638U 26020X   26059.43535036  .00478843  00000+0  27424-2 0  9995
2 67638  42.9990 197.6876 0002829 236.7233 123.3366 15.76680362  4637
STARLINK-36595          
1 67639U 26020Y   26059.38513485  .00279718  00000+0  16530-2 0  9990
2 67639  42.9980 198.1790 0002012 258.9316 101.1327 15.76524977  4629
STARLINK-36570          
1 67640U 26020Z   26059.40702963  .00302844  00000+0  17894-2 0  9997
2 67640  42.9981 198.3564 0001583 247.3144 112.7559 15.76463298  4629
STARLINK-36514          
1 67641U 26020AA  26059.43316751  .00448946  00000+0  25880-2 0  9995
2 67641  42.9985 197.6697 0002611 245.9996 114.0601 15.76614859  4630
STARLINK-36556          
1 67642U 26020AB  26059.39608273  .00375695  00000+0  21919-2 0  9993
2 67642  42.9989 198.2672 0002221 258.1596 101.9025 15.76545452  4620
STARLINK-36533          
1 67643U 26020AC  26059.40921881  .00351755  00000+0  20665-2 0  9997
2 67643  42.9988 198.3742 0002199 255.0227 105.0400 15.76455707  4625
STARLINK-36623          
1 67644U 26020AD  26059.40265013  .00325429  00000+0  19186-2 0  9991
2 67644  42.9979 198.3187 0002206 260.5565  99.5055 15.76449753  4621
STARLINK-36619          
1 67645U 26020AE  26059.40046252  .00378795  00000+0  22170-2 0  9995
2 67645  42.9970 198.3022 0001340 260.2023  99.8695 15.76464565  4626
ALSAT-3B                
1 67646U 26021A   26059.45241521  .00006877  00000+0  28797-3 0  9999
2 67646  97.4691 133.8305 0013198 162.1431 198.0272 15.23792327  4318
CZ-2C R/B               
1 67647U 26021B   26059.45571101  .00012156  00000+0  36554-3 0  9997
2 67647  97.6531 134.7431 0152158  43.4477 317.8632 15.23815453  4299
STARLINK-36719          
1 67648U 26022A   26059.26059694  .00183543  00000+0  12025-2 0  9991
2 67648  97.2853  92.7585 0001199  78.1131 282.0269 15.75241700  4065
STARLINK-36342          
1 67649U 26022B   26059.25988778  .00191049  00000+0  12505-2 0  9998
2 67649  97.2863  92.7582 0004565 132.8403 227.3247 15.75232604  4065
